{"fetched_at":"2026-07-20T18:28:56.744Z","source":"https://celestrak.org/NORAD/elements/gp.php?GROUP=planet&FORMAT=JSON","constellation":"superdove","records":[{"OBJECT_NAME":"FLOCK 4BE-3","OBJECT_ID":"2024-149CX","EPOCH":"2026-07-19T23:33:09.122112","CLASSIFICATION_TYPE":"U","MEAN_MOTION":15.424938,"ECCENTRICITY":0.00053673,"INCLINATION":97.3684,"RA_OF_ASC_NODE":285.2287,"ARG_OF_PERICENTER":155.1056,"MEAN_ANOMALY":205.0451,"EPHEMERIS_TYPE":0,"NORAD_CAT_ID":60561,"ELEMENT_SET_NO":999,"REV_AT_EPOCH":10739,"BSTAR":0.00024540467,"MEAN_MOTION_DOT":0.00010553,"MEAN_MOTION_DDOT":0},{"OBJECT_NAME":"FLOCK 4BE-19","OBJECT_ID":"2024-149CZ","EPOCH":"2026-07-20T05:16:15.774528","CLASSIFICATION_TYPE":"U","MEAN_MOTION":15.45810131,"ECCENTRICITY":0.00061716,"INCLINATION":97.3731,"RA_OF_ASC_NODE":287.1815,"ARG_OF_PERICENTER":160.0353,"MEAN_ANOMALY":200.1139,"EPHEMERIS_TYPE":0,"NORAD_CAT_ID":60563,"ELEMENT_SET_NO":999,"REV_AT_EPOCH":10752,"BSTAR":0.00033770907,"MEAN_MOTION_DOT":0.000163,"MEAN_MOTION_DDOT":0},{"OBJECT_NAME":"FLOCK 4G-8","OBJECT_ID":"2025-009E","EPOCH":"2026-07-19T23:33:01.910304","CLASSIFICATION_TYPE":"U","MEAN_MOTION":15.30295992,"ECCENTRICITY":0.00045698,"INCLINATION":97.3994,"RA_OF_ASC_NODE":282.8597,"ARG_OF_PERICENTER":175.6581,"MEAN_ANOMALY":184.47,"EPHEMERIS_TYPE":0,"NORAD_CAT_ID":62613,"ELEMENT_SET_NO":999,"REV_AT_EPOCH":8393,"BSTAR":0.00019373356,"MEAN_MOTION_DOT":0.00005602,"MEAN_MOTION_DDOT":0},{"OBJECT_NAME":"FLOCK 4G-13","OBJECT_ID":"2025-009N","EPOCH":"2026-07-20T03:16:34.480416","CLASSIFICATION_TYPE":"U","MEAN_MOTION":15.49429825,"ECCENTRICITY":0.00068294,"INCLINATION":97.3936,"RA_OF_ASC_NODE":285.1108,"ARG_OF_PERICENTER":185.7189,"MEAN_ANOMALY":174.3985,"EPHEMERIS_TYPE":0,"NORAD_CAT_ID":62621,"ELEMENT_SET_NO":999,"REV_AT_EPOCH":8409,"BSTAR":0.0009948549,"MEAN_MOTION_DOT":0.000549,"MEAN_MOTION_DDOT":0},{"OBJECT_NAME":"FLOCK 4G-9","OBJECT_ID":"2025-009P","EPOCH":"2026-07-20T03:22:06.641760","CLASSIFICATION_TYPE":"U","MEAN_MOTION":15.28557896,"ECCENTRICITY":0.00045696,"INCLINATION":97.3949,"RA_OF_ASC_NODE":281.8571,"ARG_OF_PERICENTER":186.8872,"MEAN_ANOMALY":173.2306,"EPHEMERIS_TYPE":0,"NORAD_CAT_ID":62622,"ELEMENT_SET_NO":999,"REV_AT_EPOCH":8389,"BSTAR":0.00018092557,"MEAN_MOTION_DOT":0.00004952,"MEAN_MOTION_DDOT":0},{"OBJECT_NAME":"FLOCK 4G-7","OBJECT_ID":"2025-009R","EPOCH":"2026-07-19T18:29:14.974944","CLASSIFICATION_TYPE":"U","MEAN_MOTION":15.29925487,"ECCENTRICITY":0.00030645,"INCLINATION":97.3931,"RA_OF_ASC_NODE":281.9143,"ARG_OF_PERICENTER":168.4302,"MEAN_ANOMALY":191.7009,"EPHEMERIS_TYPE":0,"NORAD_CAT_ID":62624,"ELEMENT_SET_NO":999,"REV_AT_EPOCH":8388,"BSTAR":0.00018686015,"MEAN_MOTION_DOT":0.00005338,"MEAN_MOTION_DDOT":0},{"OBJECT_NAME":"FLOCK 4G-12","OBJECT_ID":"2025-009S","EPOCH":"2026-07-20T03:47:59.308512","CLASSIFICATION_TYPE":"U","MEAN_MOTION":15.29833042,"ECCENTRICITY":0.00046964,"INCLINATION":97.401,"RA_OF_ASC_NODE":282.8547,"ARG_OF_PERICENTER":172.7783,"MEAN_ANOMALY":187.3526,"EPHEMERIS_TYPE":0,"NORAD_CAT_ID":62625,"ELEMENT_SET_NO":999,"REV_AT_EPOCH":8394,"BSTAR":0.00021066998,"MEAN_MOTION_DOT":0.00006011,"MEAN_MOTION_DDOT":0},{"OBJECT_NAME":"FLOCK 4G-11","OBJECT_ID":"2025-009W","EPOCH":"2026-07-20T03:25:40.878336","CLASSIFICATION_TYPE":"U","MEAN_MOTION":15.29942456,"ECCENTRICITY":0.0003137,"INCLINATION":97.3912,"RA_OF_ASC_NODE":282.3919,"ARG_OF_PERICENTER":170.0741,"MEAN_ANOMALY":190.0563,"EPHEMERIS_TYPE":0,"NORAD_CAT_ID":62629,"ELEMENT_SET_NO":999,"REV_AT_EPOCH":8395,"BSTAR":0.00021604923,"MEAN_MOTION_DOT":0.00006187,"MEAN_MOTION_DDOT":0},{"OBJECT_NAME":"FLOCK 4G-26","OBJECT_ID":"2025-009AA","EPOCH":"2026-07-20T05:18:30.155904","CLASSIFICATION_TYPE":"U","MEAN_MOTION":15.30139758,"ECCENTRICITY":0.00041071,"INCLINATION":97.4007,"RA_OF_ASC_NODE":283.0802,"ARG_OF_PERICENTER":162.9579,"MEAN_ANOMALY":197.18,"EPHEMERIS_TYPE":0,"NORAD_CAT_ID":62633,"ELEMENT_SET_NO":999,"REV_AT_EPOCH":8396,"BSTAR":0.0002376213,"MEAN_MOTION_DOT":0.00006855,"MEAN_MOTION_DDOT":0},{"OBJECT_NAME":"FLOCK 4G-28","OBJECT_ID":"2025-009AB","EPOCH":"2026-07-19T18:41:28.831488","CLASSIFICATION_TYPE":"U","MEAN_MOTION":15.35325452,"ECCENTRICITY":0.00025258,"INCLINATION":97.4018,"RA_OF_ASC_NODE":285.4611,"ARG_OF_PERICENTER":152.1137,"MEAN_ANOMALY":208.0242,"EPHEMERIS_TYPE":0,"NORAD_CAT_ID":62634,"ELEMENT_SET_NO":999,"REV_AT_EPOCH":8408,"BSTAR":0.00013580317,"MEAN_MOTION_DOT":0.00004577,"MEAN_MOTION_DDOT":0},{"OBJECT_NAME":"FLOCK 4G-24","OBJECT_ID":"2025-009AE","EPOCH":"2026-07-20T03:59:11.974848","CLASSIFICATION_TYPE":"U","MEAN_MOTION":15.30423638,"ECCENTRICITY":0.00040473,"INCLINATION":97.4014,"RA_OF_ASC_NODE":283.333,"ARG_OF_PERICENTER":152.1218,"MEAN_ANOMALY":208.024,"EPHEMERIS_TYPE":0,"NORAD_CAT_ID":62637,"ELEMENT_SET_NO":999,"REV_AT_EPOCH":8397,"BSTAR":0.00019525186,"MEAN_MOTION_DOT":0.00005668,"MEAN_MOTION_DDOT":0},{"OBJECT_NAME":"FLOCK 4G-3","OBJECT_ID":"2025-009AG","EPOCH":"2026-07-19T23:09:08.560224","CLASSIFICATION_TYPE":"U","MEAN_MOTION":15.29927341,"ECCENTRICITY":0.00036854,"INCLINATION":97.4013,"RA_OF_ASC_NODE":282.8368,"ARG_OF_PERICENTER":157.2384,"MEAN_ANOMALY":202.902,"EPHEMERIS_TYPE":0,"NORAD_CAT_ID":62639,"ELEMENT_SET_NO":999,"REV_AT_EPOCH":8391,"BSTAR":0.00019058876,"MEAN_MOTION_DOT":0.00005446,"MEAN_MOTION_DDOT":0},{"OBJECT_NAME":"FLOCK 4G-27","OBJECT_ID":"2025-009AJ","EPOCH":"2026-07-20T02:46:00.509088","CLASSIFICATION_TYPE":"U","MEAN_MOTION":15.29860811,"ECCENTRICITY":0.00030492,"INCLINATION":97.3923,"RA_OF_ASC_NODE":282.3284,"ARG_OF_PERICENTER":157.8078,"MEAN_ANOMALY":202.3295,"EPHEMERIS_TYPE":0,"NORAD_CAT_ID":62641,"ELEMENT_SET_NO":999,"REV_AT_EPOCH":8393,"BSTAR":0.00018409786,"MEAN_MOTION_DOT":0.00005247,"MEAN_MOTION_DDOT":0},{"OBJECT_NAME":"FLOCK 4G-29","OBJECT_ID":"2025-009AK","EPOCH":"2026-07-20T03:58:51.809952","CLASSIFICATION_TYPE":"U","MEAN_MOTION":15.29906991,"ECCENTRICITY":0.00037869,"INCLINATION":97.4012,"RA_OF_ASC_NODE":282.9965,"ARG_OF_PERICENTER":153.2798,"MEAN_ANOMALY":206.8638,"EPHEMERIS_TYPE":0,"NORAD_CAT_ID":62642,"ELEMENT_SET_NO":999,"REV_AT_EPOCH":8394,"BSTAR":0.0001629497,"MEAN_MOTION_DOT":0.00004642,"MEAN_MOTION_DDOT":0},{"OBJECT_NAME":"FLOCK 4G-22","OBJECT_ID":"2025-009AN","EPOCH":"2026-07-20T06:00:01.720224","CLASSIFICATION_TYPE":"U","MEAN_MOTION":15.2982736,"ECCENTRICITY":0.0003369,"INCLINATION":97.3997,"RA_OF_ASC_NODE":283.1132,"ARG_OF_PERICENTER":149.5715,"MEAN_ANOMALY":210.5722,"EPHEMERIS_TYPE":0,"NORAD_CAT_ID":62645,"ELEMENT_SET_NO":999,"REV_AT_EPOCH":8397,"BSTAR":0.00019284502,"MEAN_MOTION_DOT":0.00005494,"MEAN_MOTION_DDOT":0},{"OBJECT_NAME":"FLOCK 4G-25","OBJECT_ID":"2025-009AP","EPOCH":"2026-07-19T23:04:23.609568","CLASSIFICATION_TYPE":"U","MEAN_MOTION":15.3006189,"ECCENTRICITY":0.00028292,"INCLINATION":97.4001,"RA_OF_ASC_NODE":282.9067,"ARG_OF_PERICENTER":152.9016,"MEAN_ANOMALY":207.2373,"EPHEMERIS_TYPE":0,"NORAD_CAT_ID":62646,"ELEMENT_SET_NO":999,"REV_AT_EPOCH":8393,"BSTAR":0.00018738603,"MEAN_MOTION_DOT":0.00005375,"MEAN_MOTION_DDOT":0}]}
