FLOCK 4BE-3             
1 60561U 24149CX  26200.98135558  .00010553  00000+0  24540-3 0  9993
2 60561  97.3684 285.2287 0005367 155.1056 205.0451 15.42493800107398
FLOCK 4BE-19            
1 60563U 24149CZ  26201.21962702  .00016300  00000+0  33771-3 0  9993
2 60563  97.3731 287.1815 0006171 160.0353 200.1139 15.45810131107527
FLOCK 4G-8              
1 62613U 25009E   26200.98127211  .00005602  00000+0  19373-3 0  9993
2 62613  97.3994 282.8597 0004569 175.6581 184.4700 15.30295992 83931
FLOCK 4G-13             
1 62621U 25009N   26201.13651019  .00054900  00000+0  99485-3 0  9995
2 62621  97.3936 285.1108 0006829 185.7189 174.3985 15.49429825 84092
FLOCK 4G-9              
1 62622U 25009P   26201.14035465  .00004952  00000+0  18093-3 0  9996
2 62622  97.3949 281.8571 0004569 186.8872 173.2306 15.28557896 83893
FLOCK 4G-7              
1 62624U 25009R   26200.77031221  .00005338  00000+0  18686-3 0  9999
2 62624  97.3931 281.9143 0003064 168.4302 191.7009 15.29925487 83885
FLOCK 4G-12             
1 62625U 25009S   26201.15832533  .00006011  00000+0  21067-3 0  9994
2 62625  97.4010 282.8547 0004696 172.7783 187.3526 15.29833042 83943
FLOCK 4G-11             
1 62629U 25009W   26201.14283424  .00006187  00000+0  21605-3 0  9998
2 62629  97.3912 282.3919 0003137 170.0741 190.0563 15.29942456 83952
FLOCK 4G-26             
1 62633U 25009AA  26201.22118236  .00006855  00000+0  23762-3 0  9998
2 62633  97.4007 283.0802 0004107 162.9579 197.1800 15.30139758 83967
FLOCK 4G-28             
1 62634U 25009AB  26200.77880592  .00004577  00000+0  13580-3 0  9995
2 62634  97.4018 285.4611 0002525 152.1137 208.0242 15.35325452 84086
FLOCK 4G-24             
1 62637U 25009AE  26201.16611082  .00005668  00000+0  19525-3 0  9995
2 62637  97.4014 283.3330 0004047 152.1218 208.0240 15.30423638 83976
FLOCK 4G-3              
1 62639U 25009AG  26200.96468241  .00005446  00000+0  19059-3 0  9997
2 62639  97.4013 282.8368 0003685 157.2384 202.9020 15.29927341 83910
FLOCK 4G-27             
1 62641U 25009AJ  26201.11528367  .00005247  00000+0  18410-3 0  9993
2 62641  97.3923 282.3284 0003049 157.8078 202.3295 15.29860811 83932
FLOCK 4G-29             
1 62642U 25009AK  26201.16587743  .00004642  00000+0  16295-3 0  9999
2 62642  97.4012 282.9965 0003786 153.2798 206.8638 15.29906991 83943
FLOCK 4G-22             
1 62645U 25009AN  26201.25001991  .00005494  00000+0  19285-3 0  9996
2 62645  97.3997 283.1132 0003369 149.5715 210.5722 15.29827360 83971
FLOCK 4G-25             
1 62646U 25009AP  26200.96138437  .00005375  00000+0  18739-3 0  9991
2 62646  97.4001 282.9067 0002829 152.9016 207.2373 15.30061890 83936
